{"type":"FeatureCollection","$comment":"GENERATED by python -m pipeline.tiles.boundary from bc_boundary.geojson. The frame minus British Columbia, simplified to 0.002 deg.","features":[{"type":"Feature","properties":{"side":"outside"},"geometry":{"type":"Polygon","coordinates":[[[-145.06131720791785,42.224825610422634],[-145.06131720791785,66.00046797713104],[-108.05413489184757,66.00046797713104],[-108.05413489184757,42.224825610422634],[-145.06131720791785,42.224825610422634]],[[-125.25763122103699,48.74826292835509],[-125.19152356208097,48.73361863576615],[-125.16909669988524,48.705072208605564],[-125.13035900061756,48.68284077468737],[-125.0964514233816,48.67671932413924],[-125.07225654010314,48.67816589263961],[-125.0240530851127,48.665309071043275],[-124.97456562778441,48.65713749451096],[-124.93696481152779,48.642975748413775],[-124.87850472975006,48.629077557218196],[-124.85033836187365,48.61855144778277],[-124.83852286948056,48.608787561471175],[-124.8229655496164,48.60167925366025],[-124.80192281008091,48.582737809813125],[-124.74206396318523,48.50221878231048],[-124.73091407263865,48.49457524906347],[-124.01249260887175,48.29694617560884],[-123.67947846349655,48.24026888722159],[-123.54160730204167,48.224825610422634],[-123.24879573664617,48.28429229992648],[-123.11421707792864,48.42312399738439],[-123.16024030405843,48.453806689408815],[-123.21931233379534,48.54899881963339],[-123.26826149621903,48.69426408835255],[-123.00892048651534,48.767366023426916],[-123.00892612108042,48.831483142217785],[-123.32273666693322,49.00228080015057],[-122.11711820117252,49.00241491658669],[-121.75956501334642,48.99729337731954],[-120.64542079877103,49.00020513646227],[-114.36192979573721,49.00110356644333],[-114.06816703293785,48.99886155096654],[-114.07246254081734,49.004722104860114],[-114.05413489184757,49.02618084938707],[-114.06160829266105,49.03581970222823],[-114.06245743829929,49.046207804924116],[-114.07653076591455,49.05365299395952],[-114.08034299297698,49.0602388837157],[-114.09917770780466,49.060543407485916],[-114.11578042058014,49.073824789895816],[-114.13078216394105,49.07897271275803],[-114.1496165895772,49.09527343672775],[-114.15383179405254,49.10208695647143],[-114.14966141885692,49.10863182233394],[-114.1502108298053,49.11841963308606],[-114.15841847367469,49.12421079658046],[-114.16653007693735,49.136036109809616],[-114.14971177557558,49.14399952760161],[-114.17467066961181,49.163625704014024],[-114.21167147196417,49.172477510703644],[-114.22259859601543,49.18890050733928],[-114.2306069864192,49.18922741749532],[-114.23598679632161,49.1844635325629],[-114.24743060931841,49.18636373400886],[-114.25659263455705,49.17705629899917],[-114.270060442653,49.18155845971334],[-114.28515929148651,49.17863116468832],[-114.2937678556119,49.18807946939728],[-114.31109940253585,49.19223726965989],[-114.31803576289353,49.200325383306726],[-114.33664394372744,49.199388805656596],[-114.34859622672835,49.19338505988609],[-114.36172869013829,49.202251863561834],[-114.38085242999173,49.2036124743562],[-114.40214822373856,49.21328895330988],[-114.39391962813636,49.21942863389732],[-114.40580824937436,49.22449462216511],[-114.40108493267012,49.22866635985321],[-114.40288063202422,49.24078735671965],[-114.38021715367519,49.249513902610374],[-114.3874191588264,49.25111578048721],[-114.39344945670264,49.25720200263449],[-114.41515677331445,49.262152772428315],[-114.44756897607192,49.26449446291692],[-114.45104389540654,49.27991009983527],[-114.44530908894103,49.28901766686974],[-114.46045411971477,49.30348770183359],[-114.46919728515846,49.30558083865935],[-114.4782583095662,49.312929251414225],[-114.48518966728832,49.310698484255624],[-114.49137451975548,49.31383156204144],[-114.49211249644978,49.32249389591277],[-114.47897352522193,49.326260888570374],[-114.48468909943375,49.34241105973137],[-114.492876165041,49.351631239998255],[-114.5065006404806,49.35643781163897],[-114.51709600919116,49.35422956383534],[-114.52397139337097,49.356954893715944],[-114.52456668946812,49.36262314843898],[-114.53184256946368,49.37160262347149],[-114.5261561278728,49.37689403204717],[-114.539228482008,49.379594608304025],[-114.56725582486118,49.37732716356461],[-114.57587545424855,49.38637665308165],[-114.57333384884951,49.38952238048828],[-114.5873241265621,49.39182098728481],[-114.59074740833917,49.39566640144521],[-114.59220078140648,49.40427517622552],[-114.59832936252924,49.41227236896639],[-114.59709956921863,49.42053261617919],[-114.60128966279791,49.42451555027551],[-114.59878462351685,49.43375648651157],[-114.60538974589156,49.43859958574538],[-114.59839047794743,49.445485432696515],[-114.60386762263406,49.45171228194946],[-114.59772670646349,49.459064107636934],[-114.59980170074424,49.46677471268296],[-114.5936167033498,49.47083639370509],[-114.59637509858752,49.4793317405841],[-114.59415510295925,49.48548591594858],[-114.59785133898725,49.4911451864632],[-114.59330516155896,49.493240060603696],[-114.59645313837117,49.50163181920538],[-114.5849743976121,49.51183685156385],[-114.58298855720825,49.52016761819716],[-114.57251268965614,49.52491985040068],[-114.57315029416168,49.53268714687532],[-114.56943287271883,49.53741499474604],[-114.57368339332429,49.54531302089006],[-114.57336953459912,49.55651176700178],[-114.5880508045708,49.5652781395197],[-114.59261865643808,49.56140473660368],[-114.60780659446229,49.5599555235967],[-114.61744429113506,49.54719050066043],[-114.63107932841439,49.549038684953544],[-114.64016210533676,49.54294623335439],[-114.6550680866168,49.545214606319945],[-114.66371803695291,49.552052474605446],[-114.68506465568673,49.55656936388349],[-114.69538090727818,49.54774823934974],[-114.6967877407265,49.55127265066714],[-114.70272521880221,49.551242117726304],[-114.70846091646328,49.556540553714434],[-114.71455472162985,49.5659088588523],[-114.72552140611135,49.571581783907845],[-114.7237451631586,49.57576928350514],[-114.7327615973191,49.5765591697115],[-114.73748054503356,49.59643254529716],[-114.74577633818518,49.600081875878224],[-114.74666234578204,49.6071563710754],[-114.75344175857416,49.60959063636089],[-114.74790830962627,49.61391489991084],[-114.74740425583059,49.6194158817363],[-114.72228665971666,49.62423175971232],[-114.71675516225623,49.630785512793906],[-114.70613242457765,49.63354530837773],[-114.70579445986323,49.637196062030306],[-114.6998952237796,49.636536725847755],[-114.69792937324104,49.63126998594251],[-114.69075112117456,49.63268411273874],[-114.68707938881626,49.63811066381803],[-114.6743113215901,49.64343010747006],[-114.6674795951933,49.63739231586827],[-114.66174282005304,49.64322903637191],[-114.65609930755774,49.65957777112383],[-114.66993886942834,49.67213852014285],[-114.66472097352505,49.67690712662114],[-114.66988965441264,49.68364777253462],[-114.67106673264226,49.693108861973585],[-114.65151714640704,49.69951253222752],[-114.63657619540518,49.70039969867348],[-114.63557360638809,49.70323435896665],[-114.637816264616,49.72429009781753],[-114.6325513350006,49.733192675826665],[-114.6460265369057,49.7429801355516],[-114.64175742221033,49.74694398583769],[-114.65953149973613,49.76463972958191],[-114.64910781354742,49.765589473986815],[-114.64075852185934,49.778384755093676],[-114.64172796920226,49.7815526222907],[-114.63631898219033,49.78482565291688],[-114.64231937804294,49.79439350062929],[-114.64151334411088,49.807326449978895],[-114.64745134660893,49.81701571683452],[-114.64035194828551,49.82192285137714],[-114.6421524225875,49.825424530526284],[-114.63981825727228,49.826865412417455],[-114.66262134803736,49.85340778974109],[-114.66263953047705,49.863177836187276],[-114.67150090069504,49.8637560439163],[-114.67346093139024,49.88007278866119],[-114.69199133394768,49.89633672104601],[-114.6869508093948,49.90216123400664],[-114.6900473840491,49.90583871374801],[-114.6868717083134,49.91742331486322],[-114.69075943838574,49.921321178930086],[-114.6889388879036,49.93592900770374],[-114.69325643913668,49.94218242320633],[-114.68402097717099,49.954301846300005],[-114.68293196770937,49.966234069555334],[-114.65519710237672,49.96774070318978],[-114.65111310724158,49.97701122998038],[-114.6546214188622,49.986896789133],[-114.6524343162008,49.99401641504298],[-114.66750135385722,50.0012398130642],[-114.65859443152196,50.019802886439656],[-114.66117821973874,50.02685071641497],[-114.65874846597795,50.029765384378344],[-114.66807971138498,50.03619654512106],[-114.66446267272264,50.040092016323754],[-114.67711014307437,50.04817182972667],[-114.66677873129133,50.05192300671499],[-114.66592673096794,50.06255225497556],[-114.67913965185697,50.0635898794646],[-114.69304403053812,50.070818361900486],[-114.69295314245139,50.07737833584078],[-114.69953712451705,50.08843560073529],[-114.70483650606543,50.089895833402956],[-114.7044199743534,50.09458827732172],[-114.710802040894,50.10152795408238],[-114.7205911675571,50.10587840905388],[-114.72160644919725,50.111615037536936],[-114.72962378817355,50.114302750892655],[-114.73439346358501,50.121296995459744],[-114.72568304974341,50.14204268225236],[-114.72809357844584,50.15123073278782],[-114.72616571811112,50.162362127143126],[-114.73387089481459,50.16966880235066],[-114.72558786378295,50.18308416599625],[-114.72687409859661,50.1911066442357],[-114.73963872026275,50.20260749880798],[-114.74035734810397,50.211748182061534],[-114.74890152884542,50.21510454355169],[-114.74641676821453,50.218920275232605],[-114.74856882688414,50.22446537093325],[-114.76434451913372,50.23495724146727],[-114.76285410865611,50.24025265463968],[-114.76974193977173,50.24370381696834],[-114.76713002561239,50.245981832804546],[-114.77051315457636,50.24981685136034],[-114.76440827414942,50.26608623180566],[-114.75856318021135,50.27243256590829],[-114.75235639019692,50.27347123202224],[-114.75525741663023,50.281795292286645],[-114.75459970579467,50.296491308588614],[-114.75622703249454,50.29933425082911],[-114.76995186305254,50.30262192500244],[-114.78212363441347,50.30098977946418],[-114.78228136781794,50.315388773263614],[-114.7852848587479,50.32090850114628],[-114.7974657575701,50.32666309461658],[-114.79804730750439,50.33076791849104],[-114.79231580611284,50.336558269038875],[-114.76786920135591,50.350178948622165],[-114.76938350860773,50.35895829738441],[-114.77561068253934,50.36286310219192],[-114.7849069752306,50.36284936617418],[-114.79025064826206,50.35855908131462],[-114.80997390904902,50.370707372730955],[-114.81604227792374,50.370273010707784],[-114.81868891372483,50.373722953209246],[-114.81491423560577,50.38243435118283],[-114.82054775126267,50.384467265161604],[-114.82617874214438,50.393732532799476],[-114.83220092629335,50.390816840992656],[-114.8398870653262,50.39406090999149],[-114.86193034766072,50.394072550602566],[-114.86693705477738,50.40360815690726],[-114.86133671003903,50.40835338402876],[-114.86545808758785,50.41372884115301],[-114.86064956340478,50.42111204021954],[-114.86175275816755,50.42509611689639],[-114.87393674169142,50.43000582866631],[-114.87595394796949,50.4390707785636],[-114.88379867692248,50.44078596591857],[-114.88305367828752,50.43822027927097],[-114.88866216246566,50.43636927227421],[-114.91278222556248,50.4509034860299],[-114.91757469576667,50.4620868940487],[-114.9330533846809,50.47420021490146],[-114.93809129417009,50.48636870276636],[-114.9458907110669,50.48895560950289],[-114.95915018553605,50.503701251953494],[-114.9640450661335,50.51391654996231],[-114.97876360393514,50.52925435666101],[-114.9810444654211,50.536789106576464],[-114.99078708975136,50.542561731086245],[-115.01383934306878,50.56932662424613],[-115.01706705618997,50.58330622530843],[-115.02876063495862,50.58326372452822],[-115.05132647644182,50.57502860624436],[-115.05384626968092,50.571182607661086],[-115.066443121242,50.58440537907057],[-115.07367307225188,50.58615205851387],[-115.11911118179476,50.57048711381027],[-115.13943347907347,50.57455425855283],[-115.14852123339797,50.571272506190766],[-115.1574629381662,50.57344615022342],[-115.17536567607621,50.56820433840125],[-115.17840244458432,50.558384157068026],[-115.19086014871034,50.55548828989514],[-115.19085113698091,50.54930590389869],[-115.18533146574019,50.54421118614394],[-115.18689393112244,50.540212949139274],[-115.20965148335873,50.52823695797085],[-115.23206907010163,50.546355879817796],[-115.23058521173365,50.556957936637176],[-115.24372533228082,50.57334911184233],[-115.23234706951784,50.57778420263761],[-115.24127270285156,50.58963002646189],[-115.25201500536647,50.58996203224291],[-115.26023823123569,50.59653295083773],[-115.2795536103365,50.60176154640868],[-115.28287086391857,50.60701980131124],[-115.29664236377491,50.61369253507997],[-115.29818271726522,50.6252495779674],[-115.31223225973542,50.62841070352013],[-115.31061429013602,50.63400032830711],[-115.31315769061709,50.638645925252284],[-115.28463412995757,50.63908528766543],[-115.28280308655627,50.64440897229486],[-115.27533943147638,50.64820221571046],[-115.28184237346748,50.653006254446915],[-115.28641023531928,50.660452675438236],[-115.28394829322419,50.6640475901781],[-115.29817875563648,50.68282465388195],[-115.2943033047723,50.698741248255956],[-115.3026829189037,50.70055101832736],[-115.31060116807348,50.70904381732694],[-115.31168783354731,50.721738675102024],[-115.31597491673516,50.725506144397194],[-115.36006361386221,50.72130214283705],[-115.37159372333565,50.71702708889789],[-115.37101874288737,50.714397317327],[-115.37821555301619,50.71104549693452],[-115.37934252761916,50.70534096662498],[-115.38726292884529,50.708103814452635],[-115.392842579391,50.70651710437775],[-115.40595341156316,50.712648965456985],[-115.41664646945475,50.712432872138926],[-115.41710371468515,50.7215025833719],[-115.4109157651116,50.72810396419781],[-115.41336708317614,50.73399618683789],[-115.43002136888765,50.74522943390535],[-115.4277139336138,50.74823942482572],[-115.43757123874059,50.756252723465686],[-115.44822554789268,50.75334208934664],[-115.45876160102286,50.7568250700145],[-115.47125036347033,50.75221833849869],[-115.48236102274296,50.75549687678749],[-115.48573866755184,50.761837537688756],[-115.4837250606204,50.770158018408914],[-115.50208834977468,50.78525386568772],[-115.51348113381503,50.786871417226486],[-115.51786076343878,50.78111782673581],[-115.53291283555131,50.78807886546123],[-115.53396446030922,50.79391957202927],[-115.53880371025325,50.79719988387613],[-115.55104496279898,50.798166098007336],[-115.5669788104007,50.81576392862781],[-115.56151277497509,50.821854054916955],[-115.56116277288744,50.8272208716185],[-115.56479337723297,50.829697890430346],[-115.56758618466269,50.84390851187069],[-115.57374680945965,50.84041628798758],[-115.59768675125027,50.840599509033204],[-115.60697391424611,50.84582912969266],[-115.6249472464777,50.83450166727182],[-115.64336409529086,50.841384561679625],[-115.64427760268703,50.858390630482944],[-115.65045603158609,50.86413825739534],[-115.64952877722011,50.87371860343969],[-115.62891083003937,50.88022460507722],[-115.61747344594968,50.87995624697405],[-115.61384339822835,50.88626997293365],[-115.60047642195998,50.88646241869031],[-115.59992151035995,50.890523347983425],[-115.59307382053092,50.89314418286808],[-115.57840973996267,50.8895130659485],[-115.56181785932755,50.89458811446248],[-115.57862685984942,50.91336294716867],[-115.59822464897464,50.917746924938726],[-115.61032347437961,50.9266363618569],[-115.5977770601052,50.94061751733444],[-115.60927503664851,50.94641127937151],[-115.60833916143375,50.95919624803769],[-115.62256863821149,50.96586036462992],[-115.62877517091866,50.98092395313076],[-115.63948686064614,50.98476793963498],[-115.65008696513387,50.99826759589565],[-115.66108570590197,51.0006470272255],[-115.67017858995531,50.99894351792766],[-115.67788042035231,51.00448443359115],[-115.67843556302556,51.00761311666029],[-115.69006042894524,51.01404422078149],[-115.69367545799535,51.02795761690497],[-115.70271596888257,51.024068951610566],[-115.70472192457567,51.019295352676856],[-115.71876385787597,51.016539144644284],[-115.74123900696222,51.02305710491833],[-115.74043414521645,51.026677270791154],[-115.73608092500523,51.027905083457945],[-115.74290089207693,51.032756093458865],[-115.75214222365828,51.031449659501604],[-115.76894787635666,51.03944855285798],[-115.77330021144157,51.04348233407246],[-115.77026602457651,51.047729925102004],[-115.77420308013014,51.056903752499046],[-115.76303682687615,51.06118873188356],[-115.76065395720346,51.07145688669333],[-115.75459102347217,51.074665078641374],[-115.77716688976928,51.06657484333905],[-115.79058139631681,51.07263237556845],[-115.80360484619695,51.069634758136495],[-115.81390458012636,51.08600956020909],[-115.82706636931992,51.082734077696436],[-115.83457572585026,51.07542711254733],[-115.8435285545322,51.07612296035802],[-115.84866152522265,51.081790781468214],[-115.85959245517618,51.07870197872821],[-115.86884162991778,51.08989297563148],[-115.87836442139292,51.0861275686345],[-115.89554897854838,51.08676765703316],[-115.90113521196359,51.093340060033746],[-115.90658608733888,51.08932839775082],[-115.90483257617979,51.083360719666345],[-115.91436743774359,51.08316948421796],[-115.92409790510027,51.089586448555764],[-115.930632975619,51.089644994412296],[-115.93525183770527,51.09799775917909],[-115.94943995408957,51.09883573223301],[-115.95125328369973,51.10689797900907],[-115.95786845399627,51.11524956806402],[-115.96837275150331,51.11621735982983],[-115.96773528946925,51.12143624467772],[-115.99925415539914,51.12904938984758],[-116.00997490522457,51.126455100331505],[-116.01497294126615,51.13708279119862],[-116.0097785331633,51.14184742591676],[-116.00851771899177,51.154096390089784],[-116.03002897485962,51.16267128809521],[-116.036118384119,51.16986667398035],[-116.02463316157633,51.175481906896536],[-116.02208554460734,51.18696771200692],[-116.00670077039048,51.19008366579811],[-116.00017261839446,51.19452946574924],[-116.00501708228566,51.202818711752336],[-116.00429387060653,51.20783406785193],[-116.00842942605803,51.210358731100776],[-116.0036936806143,51.21504720806152],[-116.00838176077801,51.22225063478062],[-116.01779498699776,51.22396974408469],[-116.0266788541177,51.22077767472207],[-116.05017333023588,51.22852976623731],[-116.06659921821208,51.2491336884561],[-116.08902403957698,51.252898855149],[-116.0978839168802,51.251162295173366],[-116.14490362944706,51.26494889406805],[-116.15467043569117,51.263862841686766],[-116.1601075278893,51.27685402440436],[-116.15326792928872,51.28708631260811],[-116.16041514568461,51.291500625036356],[-116.16330961305198,51.2975143577124],[-116.1820392132673,51.29541791004722],[-116.18953489173472,51.30115560623569],[-116.19581708617402,51.30104342667243],[-116.20355226681016,51.295896502357905],[-116.21967484104258,51.29345416534837],[-116.22886123152833,51.30201166199454],[-116.2452579077878,51.30167855382553],[-116.27064149135909,51.31337130586024],[-116.27556540252188,51.31989348443581],[-116.27618829107865,51.32841350082954],[-116.28724983640889,51.33425595556289],[-116.29093487319516,51.34294122296119],[-116.2788105168021,51.35517440394286],[-116.27973942387545,51.36190363010665],[-116.29719989350899,51.36600839632718],[-116.31266294508983,51.38478002117664],[-116.2941554614325,51.397780539677974],[-116.29542390666155,51.40309216443521],[-116.28385401512477,51.407459148420166],[-116.29556969397689,51.427207873753204],[-116.28712683391986,51.43508029419316],[-116.28930102310032,51.44870338254006],[-116.28545748647578,51.44964077171309],[-116.28564148330499,51.45608652741129],[-116.29495412497856,51.462497990007776],[-116.31641011027023,51.465842495080786],[-116.32078394474019,51.463547817926084],[-116.33952361083033,51.464932590365855],[-116.34716264527115,51.46930786516433],[-116.36288868795282,51.47174120136087],[-116.37107111720512,51.48287827735577],[-116.38673172552896,51.49307629903609],[-116.39861417003029,51.512627704059994],[-116.3946546155426,51.52521103963885],[-116.38459344576113,51.52980974053091],[-116.39150808213739,51.54651588205612],[-116.40295856476466,51.54608213177111],[-116.41715461545013,51.55381117585843],[-116.44204313508276,51.55679591951553],[-116.4457441524656,51.561263777345644],[-116.45211660798103,51.55959533891127],[-116.46593245737648,51.56520011214377],[-116.47279933789167,51.58019591379776],[-116.46866121390238,51.58602306549287],[-116.47477586097568,51.588544442483226],[-116.46693633809086,51.59116635137425],[-116.46871060307095,51.60435834649041],[-116.48101406171939,51.6080888487644],[-116.49029575281918,51.605650764363965],[-116.51392296303108,51.607449489620876],[-116.5168887535744,51.616146761259365],[-116.51486724970539,51.623398333655054],[-116.52030336347713,51.62485591001461],[-116.52439933035978,51.63383312301816],[-116.5313714064439,51.63896156305152],[-116.56239142919452,51.64269679483822],[-116.57084990853127,51.646451782445475],[-116.5714616027562,51.65236847108371],[-116.58408433220762,51.65367339816183],[-116.59566897109222,51.661195078680315],[-116.59773847773405,51.66538992410531],[-116.5887431402065,51.67173609374232],[-116.59212326435038,51.677888023899804],[-116.58615438362487,51.68625176750972],[-116.58164447987853,51.68723108726639],[-116.59114144943648,51.69423348677085],[-116.58193501873066,51.69810221227077],[-116.5882094794325,51.70819729388625],[-116.58634366300498,51.7138044063899],[-116.59623127835299,51.71790532794441],[-116.59999762597552,51.723929641846645],[-116.61825631290581,51.72483299524469],[-116.62823582883885,51.7288907443219],[-116.6344663021062,51.73324140923065],[-116.63608978336309,51.750155404308074],[-116.65188902032554,51.75426526258895],[-116.65263953266647,51.76702352804041],[-116.6473050542756,51.76921317226721],[-116.64941146667246,51.776002094013435],[-116.64434124658422,51.78671307918525],[-116.65678887213419,51.79347234360652],[-116.65568655739462,51.801324183725455],[-116.66005659929928,51.804657779743636],[-116.6678111884174,51.80547399744935],[-116.68066319802128,51.812756398324986],[-116.69825613469096,51.80322642865613],[-116.71772535819537,51.798782602143234],[-116.72414370727553,51.80372663163682],[-116.75022659797521,51.80507571934477],[-116.75653691050286,51.799592403830296],[-116.76258184600077,51.78616094547296],[-116.78316260749529,51.770114970059275],[-116.78556963979698,51.763470996161715],[-116.79333376646204,51.7638770490954],[-116.80781949508645,51.74991537734502],[-116.81282204319518,51.7404413970356],[-116.82143600026652,51.737620090342084],[-116.8069546471397,51.7265198637619],[-116.79887674637395,51.72404964423499],[-116.8023088744098,51.71685681259643],[-116.810728564748,51.70996091199615],[-116.81105692365819,51.705270417284616],[-116.82119651336993,51.70688430683605],[-116.83643085292624,51.70402947564091],[-116.85283082626849,51.705694242920444],[-116.85538621265373,51.709305092574965],[-116.86929477461359,51.70438552233953],[-116.8862260404752,51.70678540269579],[-116.89952739219483,51.702562596921744],[-116.91058162148518,51.70862103201804],[-116.91982724959922,51.7081354226153],[-116.92137911938768,51.71030208551168],[-116.91838199440451,51.71313769463116],[-116.93113242929392,51.72089081780295],[-116.92778587539581,51.72379286975027],[-116.92888176460049,51.728322777577645],[-116.9427737130481,51.73235292628609],[-116.94635655461336,51.7419901753256],[-116.95650023517413,51.74283039716442],[-116.96192602558116,51.74812457458368],[-116.96183327656813,51.752161833863475],[-116.97601637687588,51.75971736887707],[-116.97368178725166,51.76183715952207],[-116.97466700762875,51.770001889588706],[-116.96463526394582,51.774906439421144],[-116.96842518665576,51.7824647890057],[-116.96424579388868,51.790320508310515],[-116.97443428968309,51.80369820052098],[-116.98524026092035,51.80625523639901],[-116.99163120417482,51.81163091602555],[-116.98653644837124,51.81552246412636],[-116.98588400184813,51.81981831306978],[-116.98975438963606,51.82269497789385],[-116.98196357937896,51.829144449375235],[-116.981047131001,51.835346878828496],[-117.00672947697403,51.83602743550667],[-117.0208768473845,51.84237074130144],[-117.035186102675,51.85534450001856],[-117.033220704989,51.868572200434635],[-117.02868494315155,51.87187156542238],[-117.02701307215011,51.882264826615284],[-117.01948910379886,51.89126391486741],[-117.04768988378858,51.90988029190867],[-117.0544586862837,51.91753189846684],[-117.08481919706765,51.932748178433165],[-117.08830033520317,51.938588230206896],[-117.1019299630289,51.94756683727373],[-117.10328629121165,51.95728876492324],[-117.12219308070219,51.95695799646706],[-117.13260961243685,51.96758921785251],[-117.14928592805929,51.973496236625586],[-117.16383075034798,51.97223986985456],[-117.1962766371972,51.97861478853734],[-117.19732287209884,51.986543848128065],[-117.20317547868854,51.99312144442772],[-117.21692681828232,51.99668651988607],[-117.22394694357584,52.00586339367697],[-117.23721370381541,52.010597883399086],[-117.23546593571663,52.01647587367278],[-117.22467295514967,52.01753132013502],[-117.21399130264196,52.028786789185325],[-117.23365288180453,52.04133975162549],[-117.24120649923475,52.037839145786926],[-117.25762459270003,52.03989383283364],[-117.26921223138588,52.047051530139015],[-117.27152099575648,52.05090564222315],[-117.26931091212698,52.056077979032274],[-117.29575606042323,52.065419702764345],[-117.30609932946068,52.07481069639464],[-117.29419077869814,52.08728997116316],[-117.29710612438919,52.09490485436814],[-117.29457375728623,52.098970771190864],[-117.29857950231491,52.11386007749864],[-117.305113734648,52.1202011960316],[-117.30800860274981,52.12921787517509],[-117.30505730316261,52.14841152084927],[-117.30893777927157,52.15304679142884],[-117.33080113275845,52.156481155377165],[-117.33745512960498,52.14867317971796],[-117.33945947795719,52.138580507182795],[-117.35770007681603,52.13608972939456],[-117.3837368826933,52.137373660862245],[-117.38369462991629,52.140079578512335],[-117.39021230174309,52.13943164944587],[-117.3914521390697,52.14368451467715],[-117.40388478019193,52.13762395739076],[-117.42538315597815,52.14242641724646],[-117.42507165120023,52.14615700906259],[-117.43055417429882,52.14685687123002],[-117.464670830727,52.142529322805665],[-117.49699626890605,52.147712953755914],[-117.50899698145986,52.15417354248332],[-117.50869904679799,52.1579556206891],[-117.51328583810155,52.157929217112],[-117.51977374798687,52.1566816684463],[-117.51879965701983,52.14946668864558],[-117.52524026885177,52.14186935733578],[-117.5614134354054,52.13563575320536],[-117.55788101668341,52.12769992716939],[-117.57885887881797,52.12911468871709],[-117.58502673391833,52.1360154394812],[-117.60979251137292,52.14390631345296],[-117.61457568411942,52.15393277116589],[-117.6206739820232,52.15506639523866],[-117.61785859785124,52.16261324261052],[-117.63253193373657,52.17863449023078],[-117.63412779558112,52.18527003785657],[-117.63875398941241,52.18900923892932],[-117.63885432467512,52.198685440055705],[-117.64704463234827,52.20903093873541],[-117.66231498522045,52.198850192607026],[-117.68354048001513,52.19807232430924],[-117.70883984462856,52.18789149714559],[-117.73282768591599,52.187915136373284],[-117.74826826303396,52.1960084921798],[-117.74860957895461,52.20287316024076],[-117.75401750321682,52.20127361012466],[-117.75496076116882,52.20474675930896],[-117.77941248827804,52.215366230693206],[-117.8143065385744,52.22247435059349],[-117.8168496253468,52.24223972968104],[-117.83280085957365,52.25447975678878],[-117.8440315355566,52.27305871376504],[-117.82295623823681,52.28360634706749],[-117.825378465685,52.28874466050249],[-117.823249037424,52.29058895031392],[-117.80101292435596,52.290547701421474],[-117.79186909191222,52.293743721790214],[-117.79380626255737,52.30230252651224],[-117.78547065976325,52.30679730177086],[-117.78426013363284,52.311408743713436],[-117.77473393000636,52.31922529102191],[-117.75190793613595,52.318420899362856],[-117.74612144400618,52.322797361655255],[-117.74620471917227,52.3300126232003],[-117.7395223952319,52.33356436501461],[-117.73843502494377,52.34313791825341],[-117.72531579293397,52.3527581381131],[-117.71844136384917,52.35169708661759],[-117.70460782420837,52.35623004466626],[-117.70629877383315,52.36219637947199],[-117.72005171340443,52.3657635126295],[-117.72915902308661,52.381709369909366],[-117.72613880626453,52.382368563247404],[-117.72654736088201,52.388208569391665],[-117.72325436716437,52.39024507028673],[-117.73900699294515,52.394858327336436],[-117.7423538976437,52.39933666682137],[-117.75651569385842,52.40558785806591],[-117.76295302578588,52.41386403141853],[-117.79245393482759,52.40787608018482],[-117.82589566731296,52.419008165282946],[-117.84508367541756,52.41853967147358],[-117.85338837231025,52.41353792035108],[-117.85959014341582,52.41883864835822],[-117.87115823767603,52.420867105956034],[-117.87638986463786,52.426591222926156],[-117.89220882500334,52.4271570901988],[-117.91548076379632,52.43663305430255],[-117.91940267031946,52.44192132055066],[-117.91579303961093,52.44665566130368],[-117.93618422942959,52.4471538992907],[-117.97011433525721,52.4673854047365],[-117.97481702299058,52.47126212602063],[-117.97103414323988,52.47857289004482],[-117.97296074346772,52.483081336112924],[-117.9866276260639,52.483781794692426],[-117.98870332289546,52.48859692250426],[-117.9856228604657,52.49290336471596],[-117.9911337029646,52.496891930352376],[-118.00587932954552,52.49324939082366],[-118.00860903249095,52.48499882819477],[-118.01768677342571,52.47443080211551],[-118.02524686324477,52.472789020758384],[-118.02545737304928,52.46512719637574],[-118.01812300952942,52.45858471720422],[-118.02755797297195,52.454867472998714],[-118.04228166597163,52.4577308961207],[-118.05967011305017,52.45545956230711],[-118.05022352970663,52.44404868199941],[-118.03332009995383,52.43865735963818],[-118.03712445162516,52.431865376181484],[-118.03359474866403,52.426794503441805],[-118.03530498889454,52.421428210821816],[-118.04220957450389,52.41671918913675],[-118.05244363115456,52.41603862675733],[-118.0472783695138,52.40367882467303],[-118.04097064027164,52.398149765100264],[-118.05758469026138,52.40120143759627],[-118.0652085193535,52.39776828774446],[-118.0934769520581,52.405894559122544],[-118.12111499619643,52.40355901966828],[-118.13873437908282,52.40661814682353],[-118.14624555900336,52.4021415161148],[-118.1419651678795,52.39212177397329],[-118.17309957684957,52.390608991483404],[-118.18590788540307,52.38075337894286],[-118.18250821399782,52.375529432026326],[-118.18686302770341,52.37185510985807],[-118.21596341501487,52.3719354248128],[-118.22270677096003,52.37522788916105],[-118.22528993308904,52.379596376767736],[-118.2192907451453,52.38555317424754],[-118.21877986454523,52.396534074650845],[-118.24259467041905,52.40406656852722],[-118.23729909958439,52.42334059438355],[-118.25293469109018,52.44160777994608],[-118.25045085776101,52.45092770732752],[-118.2365667972312,52.45109499006955],[-118.22932114679391,52.4579144582541],[-118.21156003012663,52.46331238940173],[-118.20559576055669,52.472708292237996],[-118.1949828360137,52.47748759433372],[-118.20172409581225,52.4895093195322],[-118.23656188975349,52.488830230071244],[-118.25212280954284,52.49746095807765],[-118.25484473419651,52.50309848356909],[-118.26340290378414,52.50455156336387],[-118.263805589476,52.50879537576158],[-118.26949513354809,52.51351934206447],[-118.2684877281684,52.51891722590283],[-118.27391082102346,52.52320745765037],[-118.28349520605592,52.526197467461415],[-118.28960131028514,52.52470432294475],[-118.28423643071301,52.533874980089244],[-118.29034754270397,52.5395497896629],[-118.2858092397302,52.54379117732818],[-118.28670766063273,52.549850965483806],[-118.27075944926159,52.56131197855102],[-118.27199947442728,52.564609831642706],[-118.28434196409094,52.571509056812374],[-118.29896074866754,52.57099072603358],[-118.3016730359182,52.574250736619966],[-118.32894408857422,52.57786725397428],[-118.33637063911502,52.585879171643604],[-118.33719235812336,52.59361413867068],[-118.3295547639405,52.596695841757075],[-118.33487297818765,52.60074734117584],[-118.33244428936199,52.60478666912877],[-118.3343140507282,52.607233897626095],[-118.34612897305374,52.60741185663131],[-118.35680804794248,52.61530721394866],[-118.35572494492372,52.623244035452515],[-118.35170166882742,52.626905831148626],[-118.3555781401295,52.63297094584648],[-118.35339714691436,52.635452152962834],[-118.33198853625014,52.64073501693146],[-118.3282190116922,52.651026831723],[-118.31838998759453,52.65558964249633],[-118.30617130112502,52.651314616613725],[-118.29916919569295,52.653590733300646],[-118.29419972530688,52.66901422533672],[-118.3102179379179,52.674020124612994],[-118.31026559772256,52.67720095164],[-118.30474318232582,52.67934885226301],[-118.32265678434166,52.687016065355714],[-118.30744959787414,52.69413683621679],[-118.33189890760568,52.7072803592527],[-118.34453907606874,52.708998912538625],[-118.34052414988814,52.72644762097874],[-118.32861550732487,52.737924139490715],[-118.3395085522506,52.73772135669265],[-118.3659824881615,52.75258245297445],[-118.38641536995915,52.756751025100314],[-118.41487518354869,52.768604274467165],[-118.4186010640937,52.774074843625634],[-118.42108335521554,52.78138078871255],[-118.4180655430575,52.78470791283433],[-118.42277812825692,52.80036306535773],[-118.41891755229997,52.805796441538156],[-118.40713263305814,52.80883652189722],[-118.39868547747119,52.82023268427004],[-118.3964852384045,52.83115978111011],[-118.40307064617825,52.83921680775474],[-118.40153242075728,52.84343792033396],[-118.38762830824847,52.846781042696826],[-118.39598606863069,52.84907582461227],[-118.39831571669555,52.85289082924008],[-118.43782242587253,52.849960426052306],[-118.45418979785607,52.85585303767872],[-118.45550062292125,52.86130424818581],[-118.46339810743055,52.86849431132895],[-118.45692560817655,52.87025498991211],[-118.44867804329084,52.88084343694645],[-118.45256919036031,52.88696121244569],[-118.4610517394969,52.88892891672549],[-118.47445926166964,52.898876340701136],[-118.49315168202911,52.90246218876148],[-118.49838047738527,52.90614482180966],[-118.5118533686337,52.90489644010543],[-118.52215664861937,52.89661261160217],[-118.54259477393512,52.90754399709652],[-118.54968813543252,52.907797968371625],[-118.56265015340462,52.90112453103048],[-118.56561909487525,52.89356453059482],[-118.57264456974914,52.88725048608757],[-118.60244140729762,52.879297860266796],[-118.61620283961567,52.881005768841916],[-118.61481178830395,52.89437742076099],[-118.61706007023616,52.89889479583814],[-118.60718893785848,52.90571975383403],[-118.61581637197182,52.90895125199099],[-118.62267548402824,52.91970122119659],[-118.61781380979635,52.931850973797985],[-118.61033175401673,52.93590543192173],[-118.61867672628247,52.938633720125075],[-118.61991456284935,52.942091479610276],[-118.63452779529179,52.94447230051578],[-118.6343197312469,52.948473569657494],[-118.64870926645284,52.95303243338594],[-118.66123309255654,52.96303116427118],[-118.65811398977874,52.967863121554565],[-118.66181912100585,52.97477695708474],[-118.67303915886497,52.97808495302361],[-118.67019076919118,52.983690020115226],[-118.64743823494818,52.993613513080355],[-118.65082523297569,52.99949179345178],[-118.64129446352464,52.9987264247548],[-118.65546494014245,53.01293426185365],[-118.65831794271863,53.020247887245084],[-118.65243340669778,53.02633075823335],[-118.65710616913023,53.03438937119613],[-118.66752171753971,53.04182937800836],[-118.67774677970485,53.04174988349254],[-118.6878029398205,53.03963512207405],[-118.68999461083801,53.03192597084566],[-118.69713523962066,53.0319284360769],[-118.70103013766544,53.03415887805543],[-118.70329196118236,53.04644496948849],[-118.73127836015932,53.05847807610756],[-118.76034208089598,53.04333096693623],[-118.75848308302275,53.03951436208551],[-118.76141993923905,53.036648280546494],[-118.77532060347487,53.04396731950829],[-118.7782703002659,53.05009463943069],[-118.77022787079895,53.054405224463366],[-118.76936886039908,53.060400238003304],[-118.77294672569195,53.06330359208401],[-118.77048427951851,53.07134320243174],[-118.76114258916877,53.07708579661442],[-118.75674078753784,53.084963557443885],[-118.74790094945497,53.08779096159426],[-118.75170334500062,53.09400494798603],[-118.74645590763446,53.09882132420599],[-118.7418668161989,53.09882901136734],[-118.74120220938423,53.10479765941528],[-118.72884636126935,53.11242258490675],[-118.73901935119329,53.12073053833003],[-118.77887856106537,53.13206296463963],[-118.78796626357843,53.14475899538933],[-118.78251943578016,53.149767876428626],[-118.79092771835697,53.15623395263926],[-118.79242482926638,53.16162403201482],[-118.8084868270989,53.16305685937664],[-118.8183663762106,53.17079922778116],[-118.82830731565078,53.17170102573573],[-118.83286054009113,53.18070060707451],[-118.82856569826062,53.184895873784164],[-118.83236359152403,53.18856486580724],[-118.83807670815708,53.18383117790231],[-118.85328529831888,53.18526699570774],[-118.8748431010249,53.19751471659638],[-118.87398330212879,53.203462687031674],[-118.92185358529741,53.21217566224804],[-118.92550825575192,53.214411708539345],[-118.92264664994224,53.22104508449483],[-118.92751978343962,53.227033032709514],[-118.94870101263184,53.23737282421223],[-118.95861402980402,53.234703673605566],[-118.98405756054893,53.24025160507654],[-118.98939759837407,53.236683387750375],[-119.01878188087964,53.23216320161333],[-119.02282458727998,53.23004623323616],[-119.0252934582125,53.221410950151835],[-119.01545858987076,53.214974950511895],[-119.00672427211208,53.214608846069005],[-118.99329094235387,53.205090104908386],[-118.99696586707591,53.200991173068836],[-118.99603473841927,53.19361230215386],[-119.00763915890764,53.19001122119243],[-119.0104484588612,53.184346448279754],[-119.02098850769246,53.17850784964376],[-119.01816776213418,53.17608775609175],[-119.01938592059689,53.17268604597797],[-119.0250146845341,53.17069477750081],[-119.01560024459432,53.16854990026999],[-119.00844075559961,53.15836739352482],[-119.00837433337723,53.15016797979402],[-119.00148519524829,53.14600621784133],[-119.00590681729915,53.13585582315101],[-119.02765111079238,53.124239289388626],[-119.04799502581258,53.125390745227605],[-119.04733930162926,53.13801810452575],[-119.05218580733921,53.147397977026],[-119.0872112777196,53.16364944463105],[-119.1219642612632,53.16021712732686],[-119.13900196384724,53.172815889060956],[-119.14801723695534,53.191121947603406],[-119.17068137302559,53.18370056536993],[-119.20678107033477,53.18540091542644],[-119.22471027832425,53.19510466660411],[-119.22124978571513,53.19979636169901],[-119.21066076867115,53.20180342425458],[-119.20853558464765,53.20685342336282],[-119.21639214648559,53.21799667726813],[-119.22382308345205,53.22261013994732],[-119.23585285812153,53.22343842342024],[-119.2386540834095,53.21781861693878],[-119.24334990512989,53.21669296766496],[-119.26824486064213,53.217679140765945],[-119.28076096095316,53.22720049191901],[-119.28486119629706,53.23677046823109],[-119.30135314771745,53.25675883908835],[-119.33062115879511,53.270254108541835],[-119.34281425528049,53.28376823087137],[-119.34248867777697,53.28707958911278],[-119.33648685312191,53.28626710450699],[-119.33986158211539,53.288308908383335],[-119.33120749528088,53.29680517671419],[-119.34936692216108,53.30057210323923],[-119.3587688406424,53.308064601418494],[-119.36043595621926,53.31115140812818],[-119.34819088765627,53.31593104322556],[-119.3500871398108,53.327088608957986],[-119.35500122364252,53.32897269304465],[-119.36028374395833,53.3425775763758],[-119.37683293493639,53.348372900094915],[-119.39093444382176,53.35948359700772],[-119.40873586797031,53.36573591670017],[-119.43646026725007,53.355786769355596],[-119.44392909857599,53.356000636480445],[-119.44279666571013,53.34994258418823],[-119.44846566720015,53.34920658642556],[-119.4819849173603,53.36302921256918],[-119.50232524123132,53.36070139009701],[-119.52061817728844,53.370671529908456],[-119.5339613695113,53.362046133840074],[-119.54672054601227,53.36417421174058],[-119.60653427537059,53.385091142995215],[-119.6104146966044,53.38163249100778],[-119.59688312419411,53.36684707002131],[-119.60640718002507,53.36197642356148],[-119.68064626582597,53.37012995380381],[-119.67890543309333,53.379059729932095],[-119.70134820771123,53.39025479440668],[-119.71301717101565,53.386224884703054],[-119.73035824435277,53.38912253676805],[-119.72991131283138,53.39527197782646],[-119.7356655855298,53.40135506085028],[-119.73503201669871,53.406369770266934],[-119.7468580409805,53.41227061240829],[-119.74780182301502,53.41725306652922],[-119.75278503320038,53.41961953448793],[-119.74878267311696,53.42381326287956],[-119.7597420368309,53.42407482366222],[-119.76131143033011,53.42803910228251],[-119.76632567317844,53.42917134036179],[-119.75865849047582,53.437545271183964],[-119.77214598531624,53.444041523146744],[-119.7809758451224,53.46566098134821],[-119.79198596066468,53.47274313554409],[-119.79453934676704,53.479473455089924],[-119.78210919164944,53.4859577909644],[-119.78448996311816,53.491433305146884],[-119.82095513425698,53.50172861820344],[-119.83367312220027,53.51007414606259],[-119.83600790485902,53.518395227133446],[-119.85013355719163,53.51123174151104],[-119.85545356330563,53.502635408394205],[-119.86890647178723,53.4984289799691],[-119.87242617809598,53.50359338201843],[-119.90118775476301,53.516565191561845],[-119.89868992391386,53.535190182690265],[-119.89030285258946,53.53539446531156],[-119.87747896016027,53.54440688347686],[-119.8654259841441,53.54655073783921],[-119.86208332236183,53.55348222590273],[-119.8728680426739,53.56639234085817],[-119.89161597982725,53.572961167496636],[-119.893199810452,53.58237174890403],[-119.90482797986635,53.58812978546247],[-119.90789758873683,53.596596439377265],[-119.93166493678547,53.609211307182214],[-119.9029267830837,53.62000603358177],[-119.88475928279946,53.61526766370892],[-119.88000441473508,53.61897438459135],[-119.85646958681919,53.60615426619721],[-119.8440185078577,53.605867139146454],[-119.83231625755165,53.60984752634554],[-119.81653610957117,53.601848291038266],[-119.80222944617385,53.603921566781686],[-119.79082045613893,53.60113255699995],[-119.78617426863275,53.592523034286714],[-119.78047476474968,53.590988421665855],[-119.75111238353736,53.59040584369267],[-119.73519510354615,53.605708564573845],[-119.71729027227174,53.60992291203761],[-119.71658942790684,53.61624743418741],[-119.72666051945046,53.626750529807936],[-119.73843388314866,53.631194052251374],[-119.7416849815368,53.64461749855584],[-119.73706150260644,53.650999728237885],[-119.73987285105284,53.66445388756431],[-119.75111542394653,53.67076406860009],[-119.76369895707874,53.671414030475],[-119.76776948022099,53.677097117622004],[-119.77650573972957,53.67933999962978],[-119.77905354335685,53.688600046898394],[-119.79012221817213,53.70311951283016],[-119.80624560524922,53.707006788347414],[-119.82946741895915,53.69593903260099],[-119.84096454884651,53.694813291173546],[-119.84778949538583,53.70264358027828],[-119.84116213227544,53.709738296525984],[-119.85353080491635,53.71545571370225],[-119.90035900786367,53.70844802065357],[-119.91187752585415,53.7114138518288],[-119.91867835737726,53.7187005343963],[-119.90460388006585,53.72253143189257],[-119.89769245052739,53.72799701461635],[-119.90667646837969,53.73871620068367],[-119.88960908700497,53.7511758168551],[-119.89369860125065,53.75374915873243],[-119.88715134296524,53.76086286012012],[-119.89448874389177,53.766675560172786],[-119.88957167164202,53.77011398700822],[-119.8888002590789,53.77625452846],[-119.89958142527252,53.77811056714521],[-119.93453441832351,53.77558914763527],[-119.9391864455413,53.77630578181517],[-119.94178200403499,53.78145012443057],[-119.9526463031923,53.78277600750444],[-119.96205087212981,53.778938961781854],[-119.97333434580229,53.78818703734985],[-119.98217794550875,53.7903977833094],[-119.98679164181672,53.796432579358445],[-119.98321196559148,53.79982923909216],[-119.99814256138531,53.80455764723484],[-120.0013276732622,53.798829859337616],[-120.00132859008602,60.00046797713104],[-139.06131720791785,59.999650171240326],[-139.05383760300018,59.99480504264312],[-138.79866481266248,59.924608839265126],[-138.70752816392616,59.906285027065735],[-138.67960495967608,59.84533302313281],[-138.66879425174054,59.809618129751186],[-138.62634015380166,59.7685371834863],[-137.60742687312063,59.2437898184645],[-137.54218433574053,59.10642420775635],[-137.50003497319582,58.98539905324422],[-137.5261260531136,58.90636595435457],[-137.45172287497167,58.90834926235572],[-137.28284794112668,59.000009733608785],[-137.17564621344516,59.032158964921756],[-136.9696691279686,59.10124928987261],[-136.87672882700306,59.13616774625293],[-136.82872461023712,59.159969737839425],[-136.58444074254803,59.16585857678811],[-136.4897154823009,59.259768209823214],[-136.49576868230255,59.275122900286476],[-136.4692621371932,59.28407055025394],[-136.47740791356608,59.37621690761102],[-136.4771684129871,59.46580484333345],[-136.36826830007976,59.448943233053576],[-136.30503428628361,59.46450806641808],[-136.2385139215711,59.52431725343938],[-136.23984439285718,59.559407268583705],[-136.35391780994257,59.59981992400348],[-136.19293191281756,59.63999739703213],[-135.95265162659155,59.662147873077444],[-135.47916780425456,59.79802430732039],[-135.36012636185066,59.737604955223716],[-135.25277840743385,59.698269102251665],[-135.2336868467013,59.69613346672812],[-135.21986199050704,59.66276932705945],[-135.1576038302722,59.62571182620574],[-135.117846049679,59.62306094064605],[-135.0289221615219,59.5636556277519],[-135.02758295387414,59.474743004319684],[-135.07729637779667,59.45177740782525],[-135.1010382789815,59.42753172073757],[-134.98976959591985,59.387128649808595],[-135.0305445466914,59.34634989389007],[-134.95992160946253,59.280923919389544],[-134.7007675897287,59.24916598198432],[-134.67916508480874,59.192431460906],[-134.56560832732265,59.13118995332874],[-134.4834491843003,59.13160525976782],[-134.4471751480172,59.08922723688462],[-134.38192994432856,59.038768555067875],[-134.4071916867643,58.97920811135442],[-134.31353747167148,58.96217960145086],[-134.33649995738716,58.92340858683818],[-134.25937882582602,58.86105197864968],[-133.97237803893609,58.76729625799529],[-133.84053092535692,58.72942925003776],[-133.70715472289075,58.61226576912301],[-133.55784111181734,58.523122157538026],[-133.37733484212038,58.43053495490764],[-133.46152574598216,58.387706927488495],[-133.34545962425042,58.27643376527669],[-133.27017593735823,58.22729263787672],[-133.17253133731762,58.15386147401751],[-133.07031518676442,58.000513455309466],[-132.86936435617622,57.8395645085391],[-132.75131603650027,57.696123671668595],[-132.66112040720526,57.61688093251466],[-132.55391282247362,57.49662990516],[-132.37001730772593,57.349866024896414],[-132.24801498213446,57.21138129128299],[-132.36894572131598,57.09150240465457],[-132.0453264546019,57.04510178844916],[-132.12353995201462,56.87362827547472],[-131.8728929247489,56.80598498712201],[-131.9010773845356,56.75366597290693],[-131.86068078711475,56.70297626562508],[-131.83531989253248,56.59919054120903],[-131.58104164190368,56.612213304187364],[-131.4719788850881,56.55264505830838],[-131.1733772487019,56.4495019103317],[-131.08716820965714,56.40613798862926],[-130.7821541066909,56.36690770080401],[-130.62333379782328,56.26696389943963],[-130.54068414456142,56.247503490932175],[-130.4680423170225,56.24310666738697],[-130.42615491524478,56.141609326556285],[-130.35024448116422,56.128586974458614],[-130.2463701238216,56.096452688308304],[-130.10395310302658,56.122833498385624],[-130.00358445925775,56.00828638616988],[-130.01750331733885,55.91185465098736],[-130.00394372934053,55.911965218706605],[-130.0039434482309,55.90748754678674],[-130.08339400941406,55.821719232494644],[-130.12466826742366,55.8056533253188],[-130.15231626057326,55.76629203580758],[-130.147672418761,55.7149077873304],[-130.11157363814058,55.682904914131456],[-130.1278305704643,55.581037806548395],[-130.08979214764398,55.49797950210329],[-130.0411770178645,55.45172611431525],[-130.02111102246246,55.33792120919033],[-129.9766536937167,55.300371966050065],[-129.97417341469728,55.28192469334532],[-130.10285905095324,55.19261723529536],[-130.1461487327979,55.1428584003357],[-130.15245258591676,55.12463142377674],[-130.18091074265584,55.09127061949356],[-130.1875904620589,55.062858318611994],[-130.27336379988768,54.97399070756214],[-130.3459820289376,54.91776100922201],[-130.48030483159675,54.83670069763188],[-130.56825272971724,54.792189341810996],[-130.6367248754246,54.77959783933524],[-130.65908304808653,54.76308215878854],[-130.62576227501205,54.73808742855641],[-130.62868033800888,54.7247461942605],[-130.61570660185012,54.70748235598095],[-132.69892775367003,54.68063402957774],[-133.15332187737215,54.20172853251746],[-133.16067044864351,54.18729906575373],[-133.16194287084835,54.17418658924118],[-133.15381595775096,54.15330142403751],[-133.17375331234138,54.13422562495685],[-133.17670721018345,54.119265394982165],[-133.16476595962953,54.08690341937322],[-133.1478056801824,54.07282410971445],[-133.14074768701133,54.04754329893505],[-133.17711414416345,54.02617571587461],[-133.1885697711312,54.01271226416114],[-133.1964203320385,53.9918108493567],[-133.19293072568766,53.97166893215238],[-133.20412342449671,53.95843744855227],[-133.20730730577188,53.943465464748925],[-133.218406686071,53.933855621336455],[-133.22568969557298,53.919422446163004],[-133.22129495201014,53.8978656662909],[-133.22271864081728,53.88723045728551],[-133.20494212521007,53.84846663154557],[-133.18231104520646,53.82953086955591],[-133.19332756370068,53.81489268030031],[-133.1985203918956,53.80158682610719],[-133.19701656360786,53.78655139693263],[-133.18309405154253,53.759747437241046],[-133.16911653661364,53.74717005436929],[-133.11978054778882,53.72611488534557],[-133.0857315159891,53.71776910361679],[-133.09748511068477,53.70408475725961],[-133.10044335068199,53.68912809344405],[-133.09860355423646,53.6816466191257],[-133.06775242539865,53.645595673675025],[-133.04137416687718,53.63131801887274],[-133.0616323964767,53.62000918463153],[-133.0755907001352,53.59921649685078],[-133.0748959316595,53.58041704592744],[-133.06464724771575,53.56635119665958],[-133.05910032756245,53.54657529328145],[-133.04523414779004,53.53398243923839],[-133.01649578544414,53.52037195176902],[-133.0147724416771,53.51112169975248],[-133.0048092628663,53.4972805732904],[-132.9700495229034,53.47877017761101],[-132.97049951144302,53.45830228950791],[-132.96056400753474,53.44445600250929],[-132.94330347233586,53.43347169996638],[-132.92079983222723,53.42667089644421],[-132.8695357830315,53.42374628080461],[-132.81743540966107,53.42622864901097],[-132.76728192682683,53.41029544882148],[-132.78996362827746,53.393870375838056],[-132.79646196806624,53.38379567592522],[-132.8003877353411,53.36615864113053],[-132.81473070725605,53.35964015266493],[-132.82985805257616,53.347598939014496],[-132.83858875349353,53.33066121538985],[-132.83734205522822,53.31236075150731],[-132.82748644285047,53.29850318930729],[-132.80450727288,53.28232785586349],[-132.78519661977617,53.276246449080645],[-132.78967367107916,53.26063134100477],[-132.78834277184743,53.245589943079835],[-132.7844398983741,53.2383992841492],[-132.77075676655352,53.22577031984979],[-132.73519307677887,53.2118940950561],[-132.70512375377515,53.210211755639016],[-132.67833075236504,53.21431462834241],[-132.6662373205059,53.20997161958915],[-132.66437231754966,53.189960313352124],[-132.65151470185126,53.17218403730889],[-132.66776280768596,53.1353244242222],[-132.66648059981264,53.12027873337393],[-132.64969622025734,53.0977754081814],[-132.6495278544057,53.07736175468719],[-132.639787822148,53.063484685033245],[-132.60514995590717,53.03963896188581],[-132.59592685679448,53.025066350765265],[-132.5752461341327,53.00894563667848],[-132.5175653906576,52.987081899915204],[-132.48127666373918,52.98580205029254],[-132.45277390166356,52.99114911976006],[-132.42535503055151,52.98423493323795],[-132.39413350529875,52.983611683006245],[-132.41402915469635,52.97306469247318],[-132.42546213435404,52.959673292357195],[-132.4352703502955,52.93691118523368],[-132.43456448980822,52.91764390021964],[-132.4172800822584,52.89776860099476],[-132.3968593439883,52.88840381712661],[-132.39060092861092,52.875449525464056],[-132.3771506976914,52.86277106488248],[-132.33662911100953,52.84196144203977],[-132.3352300303675,52.830537800711],[-132.3281694313781,52.81548779766166],[-132.28770981369573,52.770848043504934],[-132.26797181698623,52.76169788794286],[-132.24583114825418,52.75723378565167],[-132.2213680108047,52.74216624580918],[-132.19553538369027,52.7184697056045],[-132.16536315093538,52.705123647014126],[-132.15776596946912,52.69615683613413],[-132.13592514257326,52.68307998578199],[-132.11153631142042,52.66139719656256],[-132.05183281724757,52.63371823635136],[-132.03382352179514,52.619737372649794],[-132.00538006328014,52.606699374949564],[-131.97347759851536,52.57227324984151],[-131.9486848040802,52.5516236517316],[-131.89783338231726,52.52767645336207],[-131.83312916845145,52.480010074873974],[-131.80552152605495,52.46597167628042],[-131.723128616777,52.44159913881722],[-131.71558793679662,52.431880792801934],[-131.6967647534009,52.41811991137747],[-131.68720587288786,52.40506027325421],[-131.66881334531337,52.392212098421595],[-131.6702275344709,52.378482545922694],[-131.6651665294109,52.36262378614616],[-131.62034824370812,52.30312562222236],[-131.60279910004718,52.29114598722624],[-131.57705340465967,52.28268503715709],[-131.5548374588842,52.25941899026508],[-131.53078216680458,52.243186166598626],[-131.51093363109018,52.23575344603562],[-131.49448757944003,52.204685667829125],[-131.47451660966476,52.18646924403603],[-131.41032849011665,52.14866193362539],[-131.38296754049443,52.14047569150933],[-131.3777875269658,52.13019612199016],[-131.36762972604424,52.12034560831897],[-131.35294577268525,52.11164238505068],[-131.33200953976907,52.10532338414863],[-131.3168436388275,52.09107274100974],[-131.30131636555788,52.08299386628219],[-131.29286048638443,52.07109136110642],[-131.27653700690354,52.05966333619561],[-131.22950686959896,52.043124403237066],[-131.20784042611996,52.041578266218764],[-131.1847164281849,52.04424282414637],[-131.17003349733758,52.02561122364537],[-131.179870153496,52.00747578434894],[-131.17531316194572,51.98638550832559],[-131.12712905533803,51.9401723769738],[-130.72237686071276,51.71805682516316],[-130.1583898160519,51.83361779513738],[-129.1501439021178,52.128568022064975],[-128.6749177999431,51.9976883672619],[-128.496803197584,51.28236401894487],[-128.4734492591662,51.17220210093572],[-129.14084005838677,50.990189318676656],[-129.21221371599555,50.86626266195636],[-129.2115644394005,50.86282552300321],[-129.14041028751691,50.821167954321],[-129.1192287912522,50.81227420191023],[-129.07697659826712,50.80525448105835],[-129.05470449035246,50.80749231644195],[-129.03542937421741,50.81415600982271],[-129.0101400701191,50.8141625334444],[-129.00571793658614,50.80151378977754],[-128.99485929061387,50.789969075863674],[-128.96516405320276,50.77646792129708],[-128.89158852361803,50.77368217359238],[-128.86916436687184,50.77916440354632],[-128.847607209043,50.791619993371654],[-128.84347764302643,50.777694357292326],[-128.82614848409813,50.758176543220074],[-128.8048040940126,50.746415071004485],[-128.78162782385473,50.740998746011044],[-128.7433731112075,50.743764781504964],[-128.7253113929841,50.75082478253414],[-128.71381656943137,50.75914162944887],[-128.68161618076644,50.75792503095085],[-128.65669147539356,50.74549932130024],[-128.63913227559183,50.740773181992],[-128.59711669529915,50.74000955368624],[-128.53229868552344,50.760540097904],[-128.5155405262044,50.77266879579147],[-128.50477497628987,50.79017736701053],[-128.50157575321316,50.79055665290406],[-128.497172955908,50.76133751706669],[-128.4807605230886,50.74412824108478],[-128.47857568478804,50.73300526926565],[-128.47239927429814,50.72296030591722],[-128.44655781768873,50.701349599320785],[-128.44828950037413,50.69028021742247],[-128.4400487118173,50.66255555770649],[-128.42461035018633,50.64594597896388],[-128.39573810164742,50.6318352872191],[-128.39446092270416,50.62112565844623],[-128.38450058282294,50.605836451520965],[-128.34768040403617,50.57529527721933],[-128.31236311035104,50.565746319157654],[-128.3070868148012,50.55368960028029],[-128.28674056618496,50.534969666015186],[-128.27834407370602,50.51614803170264],[-128.25056189635004,50.49534529303342],[-128.22582184797787,50.48692464685232],[-128.20517505239508,50.47347531616018],[-128.18358704496075,50.46612987822525],[-128.15574147338756,50.439314339710585],[-128.13220325401883,50.4296550468801],[-128.11446349145973,50.42710069414111],[-128.08377039261967,50.406338722246694],[-128.05596720719984,50.40031406827387],[-128.03791118817963,50.40034033529901],[-128.0419534816189,50.3823510896649],[-128.05219090844142,50.37379842673209],[-128.05890275821952,50.3629364159862],[-128.06018991435602,50.34281433709016],[-128.05441376557644,50.327603605425615],[-128.03013606597742,50.30093983659075],[-128.0117642210628,50.289944639669244],[-127.96444969237044,50.27667632263478],[-127.93659766054758,50.27683979985104],[-127.94661487203123,50.265823652933165],[-127.95076362753746,50.25084415242929],[-127.94728613199347,50.236003607028316],[-127.93643080762656,50.22381226915672],[-127.94600448934007,50.20429961882355],[-127.94380506830075,50.190094046136444],[-127.93560748133727,50.17836764225908],[-127.97370632509475,50.158472945178744],[-127.98571936290095,50.14551597790009],[-127.99010729694284,50.13070013423279],[-127.98252796970898,50.100031861461105],[-127.96288211744995,50.08144184299846],[-127.88948727061627,50.05271132110962],[-127.82705585942011,50.037998449950436],[-127.7943311763763,50.03658729839469],[-127.7681211896713,50.039572079121776],[-127.74319135524443,50.049498190294905],[-127.73735082342364,50.054632629744226],[-127.7090484957711,50.05982835112238],[-127.68985341270587,50.069033515222166],[-127.67392178424078,50.060002886992415],[-127.65555634973609,50.0549232512327],[-127.64542450590078,50.03374410518718],[-127.62870291435404,50.02163820705839],[-127.6206617866086,50.00319487916942],[-127.59646796068206,49.987006863331075],[-127.53866889610579,49.965967593264665],[-127.51328138827981,49.96283935171881],[-127.49148440007428,49.9542187569635],[-127.41151965228588,49.94665208460811],[-127.38463194296493,49.92385695971784],[-127.36101700929831,49.91458030834715],[-127.33133257538388,49.91160620023773],[-127.30202270525703,49.890997250620295],[-127.2922663745685,49.88751822584474],[-127.28185982304264,49.87470076168211],[-127.26931428991124,49.86637340986935],[-127.23422332294413,49.85509955889694],[-127.22152833745366,49.84344871281784],[-127.18537428643086,49.821417869913034],[-127.13496613568398,49.80335539707316],[-127.11550987269429,49.78300908242522],[-127.09805390333307,49.77302716491628],[-127.06477040158899,49.7666558089315],[-127.03055268230705,49.77165349355094],[-127.03968096327135,49.760597745129395],[-127.04431900150439,49.74582081759422],[-127.03622059222411,49.72396365251025],[-127.01319205560672,49.70093836930861],[-126.98807466784658,49.68525049396228],[-126.97281194432988,49.66781840289505],[-126.9474690788368,49.646410693643446],[-126.89885061096611,49.625098678047785],[-126.88566552046869,49.59814663347771],[-126.87126036586736,49.5863252123348],[-126.79328419130455,49.56316115066565],[-126.75405669364137,49.56166384792933],[-126.70114626169091,49.53713878696796],[-126.68510760378383,49.53273005481811],[-126.65163794658741,49.53126804554153],[-126.63677118594036,49.534462902350825],[-126.6336265344147,49.52048535149443],[-126.62488673640244,49.50851383030308],[-126.6253584572723,49.50197012265859],[-126.6332289040435,49.49153899337907],[-126.63796092593581,49.47677904976171],[-126.6391314760607,49.457790391461195],[-126.63206990906748,49.442219546088204],[-126.64113895364007,49.42775011124413],[-126.64172555948197,49.40861455665195],[-126.63450596497705,49.394289364622786],[-126.61772524971651,49.37917055478726],[-126.60830359502046,49.35573572233213],[-126.59403533135267,49.34388146947304],[-126.57442847731471,49.335927595080825],[-126.5518460487655,49.33283127518487],[-126.50200685592303,49.336335843965585],[-126.46450324345884,49.33423351453017],[-126.43285670158912,49.343038999246446],[-126.41742719666767,49.354252611296026],[-126.40960406289162,49.36649967349227],[-126.39465354639843,49.36383383139065],[-126.38507577787082,49.35199960576339],[-126.35352844362946,49.33564070817219],[-126.32485851245494,49.313030438340625],[-126.30041324835601,49.30360372478476],[-126.29505824266408,49.29552754918647],[-126.29750460472175,49.28582852584391],[-126.29431700818559,49.27089552199054],[-126.27564438823077,49.252035053269424],[-126.22474484016125,49.22601691173338],[-126.19435100257097,49.21959953129747],[-126.18330787961119,49.21082516712329],[-126.1654135080707,49.20336768626378],[-126.15881124120375,49.186897163237774],[-126.16299700998664,49.17414467442431],[-126.15986152369838,49.159108965508864],[-126.14859503221643,49.14564010685201],[-126.13388277052708,49.135933462881],[-126.11584711760244,49.128721175884195],[-126.09502730526867,49.12567303825752],[-126.07312818100442,49.11595164570093],[-125.99707490301228,49.10591445269365],[-125.97852464304113,49.094175454490575],[-125.95410087079895,49.087945461215504],[-125.94593069449802,49.07217285938485],[-125.9270650235857,49.056857946892144],[-125.85133216334305,49.022741559542204],[-125.82492706151358,49.01858401325452],[-125.7684392975388,49.02152324453514],[-125.7456821388903,49.008920189875965],[-125.73923979661552,48.98976121515909],[-125.71883511690359,48.96656063016659],[-125.69924517377135,48.95692656496663],[-125.6734505522696,48.951663760926664],[-125.65170577388716,48.929000578448736],[-125.60217555348376,48.90132355048803],[-125.58278834187088,48.88643736274532],[-125.55561881837819,48.878460600324075],[-125.47506621647452,48.87602761241368],[-125.45876671678475,48.86995607733569],[-125.45087752961967,48.86267705587368],[-125.42965435430526,48.82382081960624],[-125.42180189794749,48.81436323758277],[-125.40431419580253,48.80311249231889],[-125.25763122103699,48.74826292835509]]]}}]}