{
 "type": "FeatureCollection",
 "_about": "Hand-drawn lake polygons ABSENT from the FWA waterbody layer, ingested as real lake nodes. See pipeline/hack/added_lakes/README.md for the wbk minting scheme and the one thing that makes a lake a lake: the fids inside the polygon are re-stamped with its wbk, which is what breaks the stream run and mints the lake:{wbk} boundary.",
 "features": [
  {
   "type": "Feature",
   "properties": {
    "id": 1,
    "name": "Redsand Lake",
    "kind": "lake",
    "source": "manual",
    "note": "DFO Region 6 scope B(ii) regulates 'Redsand Lake' including tributaries (coho 4/day only 1 over 50 cm Sep 1-Oct 31; no fishing for chinook all year). FWA has no polygon for it, so no water of that name exists at all — an exact lookup for 'Redsand Lake' returns nothing. Treston Lake, 441 m south, carries the name variant 'TRESTON LAKE  REDSAND LAKE' from a BATHYMETRY map label (source: bathymetry in name_variants.json) — a sheet covering both lakes, which is itself evidence they are two waters. It indexes only under its own full string, so Treston never answered to 'Redsand Lake'; a substring search suggests otherwise and is not how the matcher works. Sits on the Kitsumkalum River (blk 360883243, wsc 400-195432) in the section 'between Treston Lake and Kitsumkalum Lake' — the same river Treston sits on, 441 m north of it. Hand-drawn, supplied by the curator 2026-09-01, EPSG:3857 -> 4326. 40.49 ha, 25 vertices, centre 54.70592/-128.77963, MU 6-15. Derived ids: id 1 -> wbk -1, gnis -9000001 — both NEGATIVE, and the gnis is beyond the real range in magnitude (real gnis run 1,642..8,000,027) so it cannot be confused with a real id even if a sign is lost.",
    "claims": [
     {
      "blk": "360883243",
      "wsc": "400-195432",
      "note": "Kitsumkalum River mainstem, ~705 m inside"
     },
     {
      "blk": "360770092",
      "wsc": "400-195432-306896",
      "note": "unnamed tributary, ~228 m inside — the lake swallows its mouth"
     }
    ]
   },
   "geometry": {
    "type": "Polygon",
    "coordinates": [
     [
      [
       -128.774749,
       54.705223
      ],
      [
       -128.775221,
       54.704951
      ],
      [
       -128.775306,
       54.704951
      ],
      [
       -128.776937,
       54.704281
      ],
      [
       -128.779126,
       54.703264
      ],
      [
       -128.779512,
       54.702793
      ],
      [
       -128.781315,
       54.702372
      ],
      [
       -128.782216,
       54.702322
      ],
      [
       -128.784018,
       54.702545
      ],
      [
       -128.784362,
       54.702942
      ],
      [
       -128.784748,
       54.70381
      ],
      [
       -128.784834,
       54.704355
      ],
      [
       -128.784276,
       54.705719
      ],
      [
       -128.784104,
       54.706785
      ],
      [
       -128.784362,
       54.707083
      ],
      [
       -128.784104,
       54.707455
      ],
      [
       -128.784104,
       54.707852
      ],
      [
       -128.783718,
       54.708992
      ],
      [
       -128.78243,
       54.709761
      ],
      [
       -128.780156,
       54.709785
      ],
      [
       -128.778182,
       54.709488
      ],
      [
       -128.776422,
       54.709042
      ],
      [
       -128.775049,
       54.707653
      ],
      [
       -128.775092,
       54.706116
      ],
      [
       -128.774749,
       54.705223
      ]
     ]
    ]
   }
  },
  {
   "type": "Feature",
   "properties": {
    "id": 2,
    "name": "Marsh Pond",
    "kind": "lake",
    "source": "osm",
    "note": "Region 2 MU 2-4 override 'MARSH POND' had no FWA polygon at all — the curation carried only a KML point in Aldergrove Regional Park (-122.45323, 49.00879), which the live matcher never reads (`override_typed_ids` resolves gnis/wbk/wsc/blk only), so the row pinned NOTHING. Polygon supplied by the curator from OpenStreetMap relation 2531058 v2 (changeset 94668116, natural=water, water=pond) — a multipolygon: 54-vertex outer ring (way 88807629) with one 27-vertex island (way 187905368, role inner) kept as a hole. 1.39 ha, centre 49.00899/-122.45317, EPSG:4326. The curated KML point falls INSIDE it. Isolated water: no stream fid overlaps it (nearest piece is Pepin Creek, blk 356286496, 348 m away), so it claims nothing and splits nothing — `mint_waterbody_nodes` gives it an edgeless lake node and `add_mu_sets` reads MU 2-4 off the polygon (Pepin Creek, the only water near it, is 2-4). Derived ids: id 2 -> wbk -2, gnis -9000002.",
    "claims": []
   },
   "geometry": {
    "type": "Polygon",
    "coordinates": [
     [
      [
       -122.4539245,
       49.0094556
      ],
      [
       -122.4535543,
       49.0094696
      ],
      [
       -122.4533719,
       49.0095013
      ],
      [
       -122.453211,
       49.0095717
      ],
      [
       -122.4531252,
       49.0096772
      ],
      [
       -122.4531574,
       49.0097582
      ],
      [
       -122.4531398,
       49.0098173
      ],
      [
       -122.4530501,
       49.0098426
      ],
      [
       -122.452834,
       49.0096959
      ],
      [
       -122.4527175,
       49.0095998
      ],
      [
       -122.4526382,
       49.0095358
      ],
      [
       -122.4525149,
       49.009483
      ],
      [
       -122.4523098,
       49.009438
      ],
      [
       -122.4521488,
       49.0094063
      ],
      [
       -122.4520255,
       49.0093324
      ],
      [
       -122.4519811,
       49.0092402
      ],
      [
       -122.4519825,
       49.0090967
      ],
      [
       -122.4519933,
       49.0089735
      ],
      [
       -122.4519611,
       49.0088926
      ],
      [
       -122.4519557,
       49.0088081
      ],
      [
       -122.4520362,
       49.0086674
      ],
      [
       -122.4522239,
       49.0085935
      ],
      [
       -122.452401,
       49.0085583
      ],
      [
       -122.4525726,
       49.0085724
      ],
      [
       -122.4527389,
       49.0086146
      ],
      [
       -122.4529118,
       49.0086209
      ],
      [
       -122.4530769,
       49.0085477
      ],
      [
       -122.4532378,
       49.0084527
      ],
      [
       -122.453388,
       49.0083894
      ],
      [
       -122.4535007,
       49.0083859
      ],
      [
       -122.4536884,
       49.0084457
      ],
      [
       -122.453785,
       49.0084633
      ],
      [
       -122.4538869,
       49.0084246
      ],
      [
       -122.4540157,
       49.0083894
      ],
      [
       -122.4541725,
       49.0083606
      ],
      [
       -122.4542678,
       49.0084105
      ],
      [
       -122.4542356,
       49.0084844
      ],
      [
       -122.4541498,
       49.0085935
      ],
      [
       -122.4540425,
       49.0087237
      ],
      [
       -122.4539835,
       49.0088046
      ],
      [
       -122.4539888,
       49.0088679
      ],
      [
       -122.4540747,
       49.0089102
      ],
      [
       -122.4541766,
       49.0089066
      ],
      [
       -122.4542181,
       49.0089236
      ],
      [
       -122.4542249,
       49.0089876
      ],
      [
       -122.4542839,
       49.0091037
      ],
      [
       -122.4543107,
       49.0092374
      ],
      [
       -122.4542732,
       49.0093395
      ],
      [
       -122.4543513,
       49.0094214
      ],
      [
       -122.454434,
       49.0094439
      ],
      [
       -122.4543708,
       49.0094923
      ],
      [
       -122.4542302,
       49.0095259
      ],
      [
       -122.454151,
       49.0094918
      ],
      [
       -122.4540586,
       49.0094556
      ],
      [
       -122.4539245,
       49.0094556
      ]
     ],
     [
      [
       -122.4529428,
       49.0089348
      ],
      [
       -122.4528033,
       49.0089066
      ],
      [
       -122.4526906,
       49.0089383
      ],
      [
       -122.4525565,
       49.0089946
      ],
      [
       -122.4524868,
       49.0091107
      ],
      [
       -122.4524332,
       49.0092339
      ],
      [
       -122.4524746,
       49.009374
      ],
      [
       -122.4525873,
       49.0094566
      ],
      [
       -122.4527657,
       49.0094521
      ],
      [
       -122.4528838,
       49.0094309
      ],
      [
       -122.4530501,
       49.0093676
      ],
      [
       -122.453211,
       49.0093148
      ],
      [
       -122.4533827,
       49.0092972
      ],
      [
       -122.453549,
       49.0093148
      ],
      [
       -122.4537045,
       49.0093113
      ],
      [
       -122.4538064,
       49.0092515
      ],
      [
       -122.4538815,
       49.0091741
      ],
      [
       -122.4539888,
       49.0091107
      ],
      [
       -122.4540049,
       49.0090298
      ],
      [
       -122.4539727,
       49.0089524
      ],
      [
       -122.4539406,
       49.0089207
      ],
      [
       -122.4537528,
       49.0089418
      ],
      [
       -122.4537099,
       49.0090087
      ],
      [
       -122.453667,
       49.0090474
      ],
      [
       -122.4535168,
       49.0090368
      ],
      [
       -122.4533612,
       49.0090192
      ],
      [
       -122.4531949,
       49.0089876
      ],
      [
       -122.4529428,
       49.0089348
      ]
     ]
    ]
   }
  },
  {
   "type": "Feature",
   "properties": {
    "id": 3,
    "name": "Children's Fishing Pond",
    "kind": "lake",
    "source": "osm",
    "note": "The ungazetted 'Mission Creek Regional Park Children's Fishing Pond' that the Region 8 MU 8-10 override 'HALL ROAD (Mission) POND' names ALONGSIDE FWA waterbody 329460964 — two distinct ponds 194 m apart in the same park, both inside the regulated area. Only the FWA one had geometry; this one was a bare point (-119.42958, 49.87084). Polygon supplied by the curator from OpenStreetMap way 302989664 v1 (name='Children's Fishing Pond', natural=water, water=pond): 11 vertices, 0.22 ha, centre 49.87084/-119.42959, EPSG:4326. The curated point falls INSIDE it. Kept under its OWN name, NOT 'Hall Road Pond': 329460964 already carries the curated name 'HALL ROAD POND' (name_variants, source 'regulation') and is the only item that normalises to 'hall road pond' in MU 8-10 — a second one would make that lookup ambiguous and the matcher would drop it to UNMATCHED. The override pins BOTH wbks instead, and an override always beats name matching. Isolated water: no stream fid overlaps it (nearest piece is Mission Creek, blk 356569550, 539 m away), so it claims nothing and splits nothing. Derived ids: id 3 -> wbk -3, gnis -9000003.",
    "claims": []
   },
   "geometry": {
    "type": "Polygon",
    "coordinates": [
     [
      [
       -119.4295765,
       49.8702931
      ],
      [
       -119.429488,
       49.8702965
      ],
      [
       -119.4294505,
       49.8704521
      ],
      [
       -119.4294424,
       49.8708048
      ],
      [
       -119.4294102,
       49.8710641
      ],
      [
       -119.429429,
       49.8712421
      ],
      [
       -119.4295282,
       49.8712629
      ],
      [
       -119.4296704,
       49.8712681
      ],
      [
       -119.4297991,
       49.8710537
      ],
      [
       -119.4297965,
       49.870829
      ],
      [
       -119.4296329,
       49.8704573
      ],
      [
       -119.4295765,
       49.8702931
      ]
     ]
    ]
   }
  }
 ]
}
